#aV2014  7 26  0  0  0.00000000     288 DD+AD WGS84 FIT  NGA
## 1802 518400.00000000   300.00000000 56864 0.0000000000000
+   31     1  2  3  4  5  6  7  8 10 11 12 13 14 15 16 17 18
+         19 20 21 22 23 24 25 26 27 28 29 30 31 32  0  0  0
+          0  0  0  0  0  0  0  0  0  0  0  0  0  0  0  0  0
+          0  0  0  0  0  0  0  0  0  0  0  0  0  0  0  0  0
+          0  0  0  0  0  0  0  0  0  0  0  0  0  0  0  0  0
++         2  2  2  2  2  2  2  2  2  2  2  2  2  2  2  2  2
++         2  2  2  2  2  2  2  2  2  2  2  2  2  2  0  0  0
++         0  0  0  0  0  0  0  0  0  0  0  0  0  0  0  0  0
++         0  0  0  0  0  0  0  0  0  0  0  0  0  0  0  0  0
++         0  0  0  0  0  0  0  0  0  0  0  0  0  0  0  0  0
%c cc cc ccc ccc cccc cccc cccc cccc ccccc ccccc ccccc ccccc
%c cc cc ccc ccc cccc cccc cccc cccc ccccc ccccc ccccc ccccc
%f  0.0000000  0.000000000  0.00000000000  0.000000000000000
%f  0.0000000  0.000000000  0.00000000000  0.000000000000000
%i    0    0    0    0      0      0      0      0         0
%i    0    0    0    0      0      0      0      0         0
/*      NGA, ST. LOUIS,MO.                                  
/*   EPHEMERIS COMPUTED FROM  1 DAYS OF DATA                
/*   EPOCHA SMOOTHER                                       
/* CCCCCCCCCCCCCCCCCCCCCCCCCCCCCCCCCCCCCCCCCCCCCCCCCCCCCCCCC
*  2014  7 26  8 35  0.00000000
P  1 -15724.676057    364.407621  21384.038471     18.420062                    
V  1  -8754.167291 -25773.507022  -5840.206973      0.007611                    
P  2  13912.963329  21794.776744  -6791.612681    508.911563                    
V  2    522.502051   9388.549336  29384.825033      0.021731                    
P  3 -24650.683116  -6538.322660  -8230.754748    395.601680                    
V  3   9754.267474  -2816.753555 -28827.455361      0.051666                    
P  4  -3433.987309  21486.242839  14713.971173      7.272541                    
V  4  -9454.967628 -17188.058494  22678.861086     -0.001042                    
P  5  11405.693423  10572.364233 -21561.679544   -354.920609                    
V  5 -17619.207656  20924.199813   1108.254396      0.032276                    
P  6   6398.998107  25468.987071   4003.590359     -1.630312                    
V  6  -4341.248644  -3831.740125  31219.088435     -0.019509                    
P  7  -9334.189065  14667.995682 -19892.819659    372.949945                    
V  7  -9298.315988 -23781.095484 -13461.810353      0.042588                    
P  8  -6330.676922  19554.495180 -16281.425008     14.916062                    
V  8  -6250.180871 -20292.167263 -22322.288082      0.002028                    
P 10  -3151.546692  21223.230173 -15719.245707   -135.237808                    
V 10 -14676.000040  13195.165971  21645.896944     -0.016034                    
P 11 -20520.423636  -5697.634187  15483.159017   -508.272416                    
V 11 -10359.245062 -18258.936700 -19614.898666     -0.031316                    
P 12  19943.295151  -5945.527145  16295.155433    220.610432                    
V 12 -12948.928922  16430.861496  21948.792689      0.025744                    
P 13 -20147.173039   5789.020538 -16537.936604    -24.434938                    
V 13 -19459.559773  -7074.307683  21221.291730     -0.038959                    
P 14   1471.517668 -15183.793039  21980.115773    150.882067                    
V 14  26512.089243   6613.147532   2671.266201     -0.035971                    
P 15  26474.949607   3637.742633    -35.865920   -193.175574                    
V 15   -430.811366   3315.061847 -31004.983042     -0.022067                    
P 16 -10393.929349 -10307.162128 -22213.754713   -205.333700                    
V 16  19358.385790 -20225.316772    674.077681      0.022882                    
P 17  -1129.687887  15216.216754  22012.356649   -111.776023                    
V 17 -26662.643246  -5801.054872   2452.129097     -0.028151                    
P 18  16071.442505 -20911.121658   1096.872523    333.939793                    
V 18   3811.572998   1995.832368 -31114.281959      0.024400                    
P 19 -25297.449279  -8607.267275  -2312.092100   -470.167888                    
V 19   3201.938283  -1430.512440 -31410.523510     -0.019970                    
P 20 -20220.522885  10571.742526  13354.113009    214.826555                    
V 20   7766.569671 -15857.485487  24045.598414      0.042347                    
P 21   6133.699925 -18948.437336 -16713.725178   -374.772245                    
V 21  10475.074609  20346.503655 -18954.501162     -0.021531                    
P 22   6420.898469 -22610.844141  12428.717301    253.370998                    
V 22  12465.144988  -9943.231588 -25132.630530      0.033171                    
P 23 -25609.652283    825.839213  -7676.176599    -39.515642                    
V 23  -9168.547351  -4340.508562  29233.902616     -0.029806                    
P 24  16765.457215   4081.721103  20196.684927    -32.435206                    
V 24   8105.324065  24388.170340 -11550.359718     -0.005881                    
P 25  19586.390205 -16550.030450   6568.926497     24.461484                    
V 25  -3621.875034   7997.735037  30711.402482     -0.003624                    
P 26  20849.810046  13344.745910 -10655.717145      1.872875                    
V 26 -12456.220395  -1694.824409 -27974.085390     -0.127608                    
P 27 -19670.119264 -12460.381079 -12852.276173      0.739237                    
V 27  16394.383340    667.286387 -25698.717623      0.029924                    
P 28 -11288.603165  21840.768673  10480.404672    372.442404                    
V 28  -9820.333563   7803.498487 -28619.323885      0.028704                    
P 29  19740.758431  -6912.559452 -16312.137112    549.314408                    
V 29  19848.531949   6341.544329  21336.322187      0.026326                    
P 30  -3085.817745  22928.595080 -13013.523676    -38.711031                    
V 30  -6695.186774 -15299.241416 -25423.172873     -0.060268                    
P 31  -6637.921906 -25434.126142   2493.860499    333.249752                    
V 31   3320.350592   2066.105032  32135.233259     -0.002812                    
P 32 -16654.910603  -3888.809331  20230.673409   -377.012139                    
V 32  17190.193121 -19258.305209  11013.496837      0.084008                    
EOF
